{
"type": "FeatureCollection",
"name": "bakery",
"crs": { "type": "name", "properties": { "name": "urn:ogc:def:crs:OGC:1.3:CRS84" } },
"features": [
{ "type": "Feature", "properties": { "element_type": null, "osmid": null, "shop": null, "name": "bakery_1", "addr:city": null, "addr:housenumber": null, "addr:postcode": null, "addr:street": null, "building": null }, "geometry": { "type": "Point", "coordinates": [ 33.56280773692513, 60.711701371704386 ] } },
{ "type": "Feature", "properties": { "element_type": "node", "osmid": 1330186027, "shop": "bakery", "name": "Булочная", "addr:city": "", "addr:housenumber": "36", "addr:postcode": null, "addr:street": "ул. Титова", "building": null }, "geometry": { "type": "Point", "coordinates": [ 33.5549245, 60.7322791 ] } },
{ "type": "Feature", "properties": { "element_type": "node", "osmid": 1330186204, "shop": "bakery", "name": "ООО \"ЛодХиК", "addr:city": null, "addr:housenumber": null, "addr:postcode": null, "addr:street": null, "building": null }, "geometry": { "type": "Point", "coordinates": [ 33.5549567, 60.73594 ] } },
{ "type": "Feature", "properties": { "element_type": "node", "osmid": 1330186253, "shop": "bakery", "name": "Радости жизни", "addr:city": "Лодейное Поле", "addr:housenumber": "39", "addr:postcode": "187700", "addr:street": "улица Володарского", "building": null }, "geometry": { "type": "Point", "coordinates": [ 33.5481922, 60.7337215 ] } },
{ "type": "Feature", "properties": { "element_type": "way", "osmid": 1105534767, "shop": "bakery", "name": "Свежий Хлеб", "addr:city": null, "addr:housenumber": null, "addr:postcode": null, "addr:street": null, "building": "yes" }, "geometry": { "type": "Point", "coordinates": [ 33.540653301479026, 60.739800640464885 ] } },
{ "type": "Feature", "properties": { "element_type": null, "osmid": null, "shop": "bakery", "name": "Дело не в кофе", "addr:city": null, "addr:housenumber": "41А", "addr:postcode": null, "addr:street": "проспект Ленина", "building": null }, "geometry": { "type": "Point", "coordinates": [ 33.546410093931009, 60.734155365594319 ] } },
{ "type": "Feature", "properties": { "element_type": null, "osmid": null, "shop": "bakery", "name": "Булочная", "addr:city": null, "addr:housenumber": "38", "addr:postcode": null, "addr:street": "проспект Ленина", "building": null }, "geometry": { "type": "Point", "coordinates": [ 33.540518899044962, 60.734823413162729 ] } },
{ "type": "Feature", "properties": { "element_type": null, "osmid": null, "shop": "bakery", "name": "Хлебник", "addr:city": null, "addr:housenumber": "35", "addr:postcode": null, "addr:street": "ул. Коммунаров", "building": null }, "geometry": { "type": "Point", "coordinates": [ 33.540155427308598, 60.736981638981952 ] } },
{ "type": "Feature", "properties": { "element_type": null, "osmid": null, "shop": null, "name": "bakery_2", "addr:city": null, "addr:housenumber": null, "addr:postcode": null, "addr:street": null, "building": null }, "geometry": { "type": "Point", "coordinates": [ 33.573272491369771, 60.717695549288052 ] } }
]
}
