{
"type": "FeatureCollection",
"name": "pharmacy",
"crs": { "type": "name", "properties": { "name": "urn:ogc:def:crs:OGC:1.3:CRS84" } },
"features": [
{ "type": "Feature", "properties": { "element_type": null, "osmid": null, "addr:city": null, "addr:housenumber": null, "addr:postcode": null, "addr:street": null, "amenity": null, "dispensing": null, "drive_through": null, "healthcare": null, "name": "pharmacy_1", "phone": null, "website": null, "opening_hours": null, "brand": null, "brand:wikidata": null, "name:en": null, "name:et": null, "name:it": null, "name:ru": null, "contact:email": null, "contact:phone": null, "contact:website": null, "building": null }, "geometry": { "type": "Point", "coordinates": [ 33.574135149908344, 60.716414295316142 ] } },
{ "type": "Feature", "properties": { "element_type": null, "osmid": null, "addr:city": null, "addr:housenumber": null, "addr:postcode": null, "addr:street": null, "amenity": null, "dispensing": null, "drive_through": null, "healthcare": null, "name": "pharmacy_2", "phone": null, "website": null, "opening_hours": null, "brand": null, "brand:wikidata": null, "name:en": null, "name:et": null, "name:it": null, "name:ru": null, "contact:email": null, "contact:phone": null, "contact:website": null, "building": null }, "geometry": { "type": "Point", "coordinates": [ 33.561725062971405, 60.713402364737632 ] } },
{ "type": "Feature", "properties": { "element_type": null, "osmid": null, "addr:city": null, "addr:housenumber": null, "addr:postcode": null, "addr:street": null, "amenity": null, "dispensing": null, "drive_through": null, "healthcare": null, "name": "pharmacy", "phone": null, "website": null, "opening_hours": null, "brand": null, "brand:wikidata": null, "name:en": null, "name:et": null, "name:it": null, "name:ru": null, "contact:email": null, "contact:phone": null, "contact:website": null, "building": null }, "geometry": { "type": "Point", "coordinates": [ 33.565549100378924, 60.718183579765487 ] } },
{ "type": "Feature", "properties": { "element_type": "node", "osmid": 381846229, "addr:city": "Лодейное Поле", "addr:housenumber": "12", "addr:postcode": "187700", "addr:street": "Ульяновская улица", "amenity": "pharmacy", "dispensing": "yes", "drive_through": "no", "healthcare": "pharmacy", "name": "ЛенОблФарм", "phone": "+79111912501", "website": "https://lenoblpharm.ru/", "opening_hours": null, "brand": null, "brand:wikidata": null, "name:en": null, "name:et": null, "name:it": null, "name:ru": null, "contact:email": null, "contact:phone": null, "contact:website": null, "building": null }, "geometry": { "type": "Point", "coordinates": [ 33.5397062, 60.7392024 ] } },
{ "type": "Feature", "properties": { "element_type": "node", "osmid": 386480254, "addr:city": "Лодейное Поле", "addr:housenumber": "37", "addr:postcode": "187701", "addr:street": "Октябрьский проспект", "amenity": "pharmacy", "dispensing": "yes", "drive_through": "no", "healthcare": "pharmacy", "name": "Аптека", "phone": null, "website": null, "opening_hours": "Mo-Su 10:00-19:00", "brand": null, "brand:wikidata": null, "name:en": null, "name:et": null, "name:it": null, "name:ru": null, "contact:email": null, "contact:phone": null, "contact:website": null, "building": null }, "geometry": { "type": "Point", "coordinates": [ 33.5668387, 60.7243812 ] } },
{ "type": "Feature", "properties": { "element_type": "node", "osmid": 386487447, "addr:city": "Лодейное Поле", "addr:housenumber": "8", "addr:postcode": "187701", "addr:street": "улица Урицкого", "amenity": "pharmacy", "dispensing": "yes", "drive_through": "no", "healthcare": "pharmacy", "name": null, "phone": "+78136423977", "website": "https://lenfarm.ru/", "opening_hours": "Mo-Fr 09:00-17:00", "brand": null, "brand:wikidata": null, "name:en": null, "name:et": null, "name:it": null, "name:ru": null, "contact:email": null, "contact:phone": null, "contact:website": null, "building": null }, "geometry": { "type": "Point", "coordinates": [ 33.5556566, 60.7333279 ] } },
{ "type": "Feature", "properties": { "element_type": "node", "osmid": 386501696, "addr:city": "Лодейное Поле", "addr:housenumber": "3", "addr:postcode": "187700", "addr:street": "улица Гагарина", "amenity": "pharmacy", "dispensing": null, "drive_through": "no", "healthcare": "pharmacy", "name": "Аптечный пункт", "phone": null, "website": null, "opening_hours": "Mo-Sa 09:00-19:00", "brand": null, "brand:wikidata": null, "name:en": null, "name:et": null, "name:it": null, "name:ru": null, "contact:email": null, "contact:phone": null, "contact:website": null, "building": null }, "geometry": { "type": "Point", "coordinates": [ 33.5439516, 60.7384389 ] } },
{ "type": "Feature", "properties": { "element_type": "node", "osmid": 983965525, "addr:city": "Лодейное Поле", "addr:housenumber": "38", "addr:postcode": "187700", "addr:street": "проспект Ленина", "amenity": "pharmacy", "dispensing": "yes", "drive_through": "no", "healthcare": "pharmacy", "name": "Озерки", "phone": "+78126030000", "website": "https://ozerki.ru/pharmacies/6937/", "opening_hours": "Mo-Su 08:00-22:00", "brand": "Озерки", "brand:wikidata": "Q109712399", "name:en": null, "name:et": null, "name:it": null, "name:ru": null, "contact:email": null, "contact:phone": null, "contact:website": null, "building": null }, "geometry": { "type": "Point", "coordinates": [ 33.5408334, 60.7347901 ] } },
{ "type": "Feature", "properties": { "element_type": "node", "osmid": 3853981374, "addr:city": null, "addr:housenumber": null, "addr:postcode": null, "addr:street": null, "amenity": "pharmacy", "dispensing": null, "drive_through": null, "healthcare": "pharmacy", "name": "Невис", "phone": null, "website": "https://aptekanevis.ru/", "opening_hours": null, "brand": "Невис", "brand:wikidata": "Q109837740", "name:en": "Nevis", "name:et": "Nevis", "name:it": "Nevis", "name:ru": "Невис", "contact:email": null, "contact:phone": null, "contact:website": null, "building": null }, "geometry": { "type": "Point", "coordinates": [ 33.5522906, 60.7286577 ] } },
{ "type": "Feature", "properties": { "element_type": "node", "osmid": 8752560602, "addr:city": "Лодейное Поле", "addr:housenumber": "38", "addr:postcode": "187700", "addr:street": "проспект Ленина", "amenity": "pharmacy", "dispensing": null, "drive_through": null, "healthcare": "pharmacy", "name": "ЛекОптТорг", "phone": null, "website": null, "opening_hours": "Mo-Su 09:00-21:00", "brand": "ЛекОптТорг", "brand:wikidata": "Q109732954", "name:en": null, "name:et": null, "name:it": null, "name:ru": null, "contact:email": "spravka@lekopttorg.ru", "contact:phone": "+7 800 2225353", "contact:website": "https://lekopttorg.ru/", "building": null }, "geometry": { "type": "Point", "coordinates": [ 33.5412705, 60.7347777 ] } },
{ "type": "Feature", "properties": { "element_type": "node", "osmid": 10085056298, "addr:city": null, "addr:housenumber": null, "addr:postcode": null, "addr:street": null, "amenity": "pharmacy", "dispensing": "yes", "drive_through": null, "healthcare": "pharmacy", "name": "Невис", "phone": "+78136424107", "website": "https://aptekanevis.ru/", "opening_hours": "Mo-Su 08:30-20:00", "brand": "Невис", "brand:wikidata": "Q109837740", "name:en": null, "name:et": null, "name:it": null, "name:ru": null, "contact:email": null, "contact:phone": null, "contact:website": null, "building": null }, "geometry": { "type": "Point", "coordinates": [ 33.5418543, 60.7347569 ] } },
{ "type": "Feature", "properties": { "element_type": "node", "osmid": 11459457730, "addr:city": null, "addr:housenumber": null, "addr:postcode": null, "addr:street": null, "amenity": "pharmacy", "dispensing": null, "drive_through": null, "healthcare": "pharmacy", "name": "Калина Фарм", "phone": null, "website": null, "opening_hours": "Mo-Su 09:00-21:00", "brand": null, "brand:wikidata": null, "name:en": null, "name:et": null, "name:it": null, "name:ru": null, "contact:email": "k68@kalinafarm.ru", "contact:phone": "+7 800 5500321", "contact:website": "https://gorzdrav.org", "building": null }, "geometry": { "type": "Point", "coordinates": [ 33.539283, 60.736965 ] } },
{ "type": "Feature", "properties": { "element_type": "way", "osmid": 382203856, "addr:city": "Лодейное Поле", "addr:housenumber": null, "addr:postcode": null, "addr:street": null, "amenity": "pharmacy", "dispensing": null, "drive_through": null, "healthcare": null, "name": null, "phone": null, "website": null, "opening_hours": null, "brand": null, "brand:wikidata": null, "name:en": null, "name:et": null, "name:it": null, "name:ru": null, "contact:email": null, "contact:phone": null, "contact:website": null, "building": "yes" }, "geometry": { "type": "Point", "coordinates": [ 33.547214423714081, 60.732798606978264 ] } },
{ "type": "Feature", "properties": { "element_type": null, "osmid": null, "addr:city": null, "addr:housenumber": "15", "addr:postcode": null, "addr:street": "ул. Талалахина", "amenity": "pharmacy", "dispensing": null, "drive_through": null, "healthcare": null, "name": "ЛенОблФарм", "phone": null, "website": null, "opening_hours": "09:00-21:00", "brand": null, "brand:wikidata": null, "name:en": null, "name:et": null, "name:it": null, "name:ru": null, "contact:email": null, "contact:phone": null, "contact:website": null, "building": null }, "geometry": { "type": "Point", "coordinates": [ 33.546593813818781, 60.72087016625715 ] } },
{ "type": "Feature", "properties": { "element_type": null, "osmid": null, "addr:city": null, "addr:housenumber": null, "addr:postcode": null, "addr:street": null, "amenity": null, "dispensing": null, "drive_through": null, "healthcare": null, "name": null, "phone": null, "website": null, "opening_hours": null, "brand": null, "brand:wikidata": null, "name:en": null, "name:et": null, "name:it": null, "name:ru": null, "contact:email": null, "contact:phone": null, "contact:website": null, "building": null }, "geometry": { "type": "Point", "coordinates": [ 33.555640069506232, 60.716058771948212 ] } },
{ "type": "Feature", "properties": { "element_type": null, "osmid": null, "addr:city": null, "addr:housenumber": null, "addr:postcode": null, "addr:street": null, "amenity": null, "dispensing": null, "drive_through": null, "healthcare": null, "name": null, "phone": null, "website": null, "opening_hours": null, "brand": null, "brand:wikidata": null, "name:en": null, "name:et": null, "name:it": null, "name:ru": null, "contact:email": null, "contact:phone": null, "contact:website": null, "building": null }, "geometry": { "type": "Point", "coordinates": [ 33.566521366602444, 60.715312355660792 ] } }
]
}
