{
"type": "FeatureCollection",
"name": "school",
"crs": { "type": "name", "properties": { "name": "urn:ogc:def:crs:OGC:1.3:CRS84" } },
"features": [
{ "type": "Feature", "properties": { "element_type": "way", "osmid": 33500861, "addr:housenumber": "5", "addr:street": "улица Карла Маркса", "amenity": "school", "email": "school3lpole@yandex.ru", "name": "Средняя общеобразовательная школа №3", "phone": "+78136421963", "website": "https://school3-lp.ru/", "addr:city": "Лодейное Поле", "building": "school", "building:cladding": "panel", "building:levels": "3", "contact:vk": "https://vk.com/school3hero", "design:code:SPb": "Шк-30", "fax": "+78136425450", "grades": "1-11", "religion": "none", "addr:postcode": null, "building:architecture": null, "design:ref": null, "type": null, "capacity": "861" }, "geometry": { "type": "Point", "coordinates": [ 33.552663427785788, 60.737272816156462 ] } },
{ "type": "Feature", "properties": { "element_type": "way", "osmid": 33500972, "addr:housenumber": "2", "addr:street": "улица Свердлова", "amenity": "school", "email": "school1lp@yandex.ru", "name": "Лодейнопольская школа № 1", "phone": "+78136421953", "website": "http://www.school1lp.ru/", "addr:city": "Лодейное Поле", "building": "school", "building:cladding": "plaster", "building:levels": "2", "contact:vk": null, "design:code:SPb": null, "fax": null, "grades": "1-9", "religion": "none", "addr:postcode": "187700", "building:architecture": "stalinist neoclassicism", "design:ref": null, "type": null, "capacity": "406" }, "geometry": { "type": "Point", "coordinates": [ 33.556066209308632, 60.726805083601732 ] } },
{ "type": "Feature", "properties": { "element_type": "way", "osmid": 33501160, "addr:housenumber": "54", "addr:street": "проспект Ленина", "amenity": "school", "email": null, "name": "Средняя общеобразовательная школа №2", "phone": "+78136425501", "website": "https://school2-lp.3dn.ru/", "addr:city": "Лодейное Поле", "building": "school", "building:cladding": "brick", "building:levels": "4", "contact:vk": null, "design:code:SPb": null, "fax": null, "grades": null, "religion": null, "addr:postcode": null, "building:architecture": null, "design:ref": "2ЛГ-02-2", "type": null, "capacity": "427" }, "geometry": { "type": "Point", "coordinates": [ 33.53598997211904, 60.735293095967691 ] } },
{ "type": "Feature", "properties": { "element_type": "way", "osmid": 33501490, "addr:housenumber": "48", "addr:street": "улица Титова", "amenity": "school", "email": null, "name": "Средняя общеобразовательная школа №68", "phone": null, "website": null, "addr:city": "Лодейное Поле", "building": "school", "building:cladding": "plaster", "building:levels": "3", "contact:vk": null, "design:code:SPb": null, "fax": null, "grades": null, "religion": null, "addr:postcode": null, "building:architecture": null, "design:ref": null, "type": null, "capacity": "33" }, "geometry": { "type": "Point", "coordinates": [ 33.548617865795094, 60.732550923599028 ] } },
{ "type": "Feature", "properties": { "element_type": "relation", "osmid": 9093198, "addr:housenumber": "54А", "addr:street": "проспект Ленина", "amenity": "school", "email": null, "name": "Начальная школа МКОУ Лодейнопольский центр образования \"Развитие\"", "phone": null, "website": null, "addr:city": "Лодейное Поле", "building": "school", "building:cladding": "brick", "building:levels": "2", "contact:vk": null, "design:code:SPb": null, "fax": null, "grades": null, "religion": null, "addr:postcode": null, "building:architecture": null, "design:ref": null, "type": "multipolygon", "capacity": "379" }, "geometry": { "type": "Point", "coordinates": [ 33.536552997363572, 60.736119310737948 ] } },
{ "type": "Feature", "properties": { "element_type": null, "osmid": null, "addr:housenumber": null, "addr:street": null, "amenity": null, "email": null, "name": "school_1", "phone": null, "website": null, "addr:city": null, "building": null, "building:cladding": null, "building:levels": null, "contact:vk": null, "design:code:SPb": null, "fax": null, "grades": null, "religion": null, "addr:postcode": null, "building:architecture": null, "design:ref": null, "type": null, "capacity": null }, "geometry": { "type": "Point", "coordinates": [ 33.564659759943751, 60.716021332078931 ] } }
]
}
