{
"type": "FeatureCollection",
"name": "kindergarten",
"crs": { "type": "name", "properties": { "name": "urn:ogc:def:crs:OGC:1.3:CRS84" } },
"features": [
{ "type": "Feature", "properties": { "element_type": null, "osmid": null, "barrier": null, "amenity": null, "name": "kindergarten_1", "website": null, "addr:city": null, "addr:housenumber": null, "addr:street": null, "building": null, "building:cladding": null, "building:levels": null, "design:ref": null, "phone": null, "preschool": null, "email": null, "addr:postcode": null, "contact:vk": null, "fenced": null, "type": null, "capacity": null }, "geometry": { "type": "Point", "coordinates": [ 33.567661305575875, 60.714047987533959 ] } },
{ "type": "Feature", "properties": { "element_type": null, "osmid": null, "barrier": null, "amenity": null, "name": "kindergarten_2", "website": null, "addr:city": null, "addr:housenumber": null, "addr:street": null, "building": null, "building:cladding": null, "building:levels": null, "design:ref": null, "phone": null, "preschool": null, "email": null, "addr:postcode": null, "contact:vk": null, "fenced": null, "type": null, "capacity": null }, "geometry": { "type": "Point", "coordinates": [ 33.563358629327396, 60.717018654780084 ] } },
{ "type": "Feature", "properties": { "element_type": "way", "osmid": 33500546, "barrier": null, "amenity": "kindergarten", "name": "Детский сад №14 \"Улыбка\"", "website": "https://ulibka.edusite47.ru/", "addr:city": "Лодейное Поле", "addr:housenumber": "21", "addr:street": "Пограничная улица", "building": "kindergarten", "building:cladding": "brick", "building:levels": "2", "design:ref": "214-2-42", "phone": "+78136423443", "preschool": "yes", "email": null, "addr:postcode": null, "contact:vk": null, "fenced": null, "type": null, "capacity": 124 }, "geometry": { "type": "Point", "coordinates": [ 33.535261234016637, 60.736720124944824 ] } },
{ "type": "Feature", "properties": { "element_type": "way", "osmid": 321002027, "barrier": "fence", "amenity": "kindergarten", "name": "МБДОУ№1 \"Сказка\"", "website": "https://skazkads1.ru/", "addr:city": "Лодейное Поле", "addr:housenumber": "3", "addr:street": "Набережная улица", "building": "kindergarten", "building:cladding": null, "building:levels": null, "design:ref": null, "phone": "+78136420519", "preschool": "yes", "email": "ds1lp@mail.ru", "addr:postcode": null, "contact:vk": null, "fenced": null, "type": null, "capacity": 149 }, "geometry": { "type": "Point", "coordinates": [ 33.538961342263008, 60.739963742165322 ] } },
{ "type": "Feature", "properties": { "element_type": "way", "osmid": 1084603849, "barrier": "fence", "amenity": "kindergarten", "name": "Детский сад № 4 Катюша", "website": "https://детскийсадкатюша.рф/", "addr:city": "Лодейное Поле", "addr:housenumber": "15", "addr:street": "улица Гагарина", "building": "kindergarten", "building:cladding": null, "building:levels": null, "design:ref": null, "phone": "+78136421904", "preschool": "yes", "email": "dc04katusha@mail.ru", "addr:postcode": "187700", "contact:vk": "https://vk.com/public198883688", "fenced": null, "type": null, "capacity": 181 }, "geometry": { "type": "Point", "coordinates": [ 33.544983879517893, 60.73645514170763 ] } },
{ "type": "Feature", "properties": { "element_type": "way", "osmid": 9093199, "barrier": null, "amenity": "kindergarten", "name": "Детский сад №3 \"Светлячок\"", "website": null, "addr:city": "Лодейное Поле", "addr:housenumber": "11", "addr:street": "Ульяновская улица", "building": "kindergarten", "building:cladding": null, "building:levels": null, "design:ref": null, "phone": null, "preschool": "yes", "email": null, "addr:postcode": null, "contact:vk": null, "fenced": "yes", "type": "multipolygon", "capacity": 112 }, "geometry": { "type": "Point", "coordinates": [ 33.539138435678183, 60.737803418670545 ] } },
{ "type": "Feature", "properties": { "element_type": "way", "osmid": null, "barrier": null, "amenity": "kindergarten", "name": "Детский сад №2 \"Радуга\"", "website": null, "addr:city": "Лодейное Поле", "addr:housenumber": "38Б", "addr:street": "Октябрьский проспект", "building": "kindergarten", "building:cladding": null, "building:levels": null, "design:ref": null, "phone": null, "preschool": "yes", "email": null, "addr:postcode": null, "contact:vk": null, "fenced": null, "type": null, "capacity": 165 }, "geometry": { "type": "Point", "coordinates": [ 33.56780217281743, 60.725647242850684 ] } },
{ "type": "Feature", "properties": { "element_type": "way", "osmid": null, "barrier": null, "amenity": "kindergarten", "name": "Детский сад №16 \"Солнышко\"", "website": null, "addr:city": "Лодейное Поле", "addr:housenumber": "43А", "addr:street": "улица Карла Маркса", "building": "kindergarten", "building:cladding": null, "building:levels": null, "design:ref": null, "phone": null, "preschool": "yes", "email": null, "addr:postcode": null, "contact:vk": null, "fenced": null, "type": null, "capacity": 96 }, "geometry": { "type": "Point", "coordinates": [ 33.553266721611926, 60.730971256841613 ] } }
]
}
