{
"type": "FeatureCollection",
"name": "mall",
"crs": { "type": "name", "properties": { "name": "urn:ogc:def:crs:OGC:1.3:CRS84" } },
"features": [
{ "type": "Feature", "properties": { "element_type": "way", "osmid": 33499263, "addr:city": "Лодейное Поле", "addr:housenumber": "38А/38Б", "addr:postcode": "187700", "addr:street": "улица Карла Маркса", "building": "yes", "name": "Ирина", "shop": "mall", "building:levels": null, "building:cladding": null, "contact:vk": null, "opening_hours": null, "phone": null }, "geometry": { "type": "Point", "coordinates": [ 33.551469764926999, 60.734129874854553 ] } },
{ "type": "Feature", "properties": { "element_type": "way", "osmid": 33500178, "addr:city": "Лодейное Поле", "addr:housenumber": "37", "addr:postcode": "187701", "addr:street": "Октябрьский проспект", "building": "yes", "name": "Октябрьский", "shop": "mall", "building:levels": "2", "building:cladding": null, "contact:vk": null, "opening_hours": null, "phone": null }, "geometry": { "type": "Point", "coordinates": [ 33.5667297, 60.72439345 ] } },
{ "type": "Feature", "properties": { "element_type": "way", "osmid": 33500831, "addr:city": "Лодейное Поле", "addr:housenumber": "13В", "addr:postcode": null, "addr:street": "улица Ивана Ярославцева", "building": "yes", "name": "Куб", "shop": "mall", "building:levels": "2", "building:cladding": null, "contact:vk": null, "opening_hours": null, "phone": null }, "geometry": { "type": "Point", "coordinates": [ 33.552363433849507, 60.728786892694949 ] } },
{ "type": "Feature", "properties": { "element_type": "way", "osmid": 33501462, "addr:city": "Лодейное Поле", "addr:housenumber": "39", "addr:postcode": "187700", "addr:street": "улица Карла Маркса", "building": "yes", "name": "Альбион", "shop": "mall", "building:levels": "2", "building:cladding": "brick", "contact:vk": "https://vk.com/albionlp", "opening_hours": "Mo-Fr 09:30-19:00; Sa,Su 09:30-18:00", "phone": "+78136425162" }, "geometry": { "type": "Point", "coordinates": [ 33.552516148768476, 60.731943955829223 ] } },
{ "type": "Feature", "properties": { "element_type": "way", "osmid": 33502082, "addr:city": "Лодейное Поле", "addr:housenumber": "22А", "addr:postcode": "187700", "addr:street": "проспект Ленина", "building": "yes", "name": "Май", "shop": "mall", "building:levels": null, "building:cladding": null, "contact:vk": null, "opening_hours": null, "phone": null }, "geometry": { "type": "Point", "coordinates": [ 33.545938364880072, 60.735026525518521 ] } },
{ "type": "Feature", "properties": { "element_type": "way", "osmid": 422158809, "addr:city": "Лодейное Поле", "addr:housenumber": "3", "addr:postcode": null, "addr:street": "улица Гагарина", "building": "yes", "name": "Лига", "shop": "mall", "building:levels": null, "building:cladding": null, "contact:vk": null, "opening_hours": null, "phone": null }, "geometry": { "type": "Point", "coordinates": [ 33.543930639737212, 60.738369625445777 ] } },
{ "type": "Feature", "properties": { "element_type": "way", "osmid": 652840304, "addr:city": "Лодейное Поле", "addr:housenumber": "51", "addr:postcode": null, "addr:street": "Республиканская улица", "building": "yes", "name": "Апельсин", "shop": "mall", "building:levels": null, "building:cladding": null, "contact:vk": null, "opening_hours": null, "phone": null }, "geometry": { "type": "Point", "coordinates": [ 33.548731361280105, 60.73005137132354 ] } },
{ "type": "Feature", "properties": { "element_type": "way", "osmid": 655642325, "addr:city": "Лодейное Поле", "addr:housenumber": "20В", "addr:postcode": "187700", "addr:street": "улица Коммунаров", "building": "yes", "name": "Красная Шапочка", "shop": "mall", "building:levels": null, "building:cladding": null, "contact:vk": "https://vk.com/public213196792", "opening_hours": null, "phone": null }, "geometry": { "type": "Point", "coordinates": [ 33.538383766559733, 60.736842158182469 ] } },
{ "type": "Feature", "properties": { "element_type": "way", "osmid": 1064565162, "addr:city": "Лодейное Поле", "addr:housenumber": "35", "addr:postcode": "187700", "addr:street": "улица Коммунаров", "building": "yes", "name": "Весна", "shop": "mall", "building:levels": null, "building:cladding": null, "contact:vk": null, "opening_hours": null, "phone": null }, "geometry": { "type": "Point", "coordinates": [ 33.53971014724042, 60.737025585001952 ] } },
{ "type": "Feature", "properties": { "element_type": "way", "osmid": null, "addr:city": "Лодейное Поле", "addr:housenumber": "7", "addr:postcode": null, "addr:street": "улица Коммунаров", "building": "yes", "name": "Торговый центр", "shop": "mall", "building:levels": null, "building:cladding": null, "contact:vk": null, "opening_hours": null, "phone": null }, "geometry": { "type": "Point", "coordinates": [ 33.553403232139466, 60.73628061250664 ] } }
]
}
