{
"type": "FeatureCollection",
"name": "supermarket",
"crs": { "type": "name", "properties": { "name": "urn:ogc:def:crs:OGC:1.3:CRS84" } },
"features": [
{ "type": "Feature", "properties": { "element_type": "node", "osmid": 1000929826, "alt_name": "Пятерочка", "alt_name:ru": "Пятерочка", "brand": "Пятёрочка", "brand:en": "Pyaterochka", "brand:ru": "Пятёрочка", "brand:wikidata": "Q1768969", "brand:wikipedia": "ru:Пятёрочка", "contact:email": "vopros@5ka.ru", "contact:facebook": "pyaterochka", "contact:instagram": "pyaterochka_official", "contact:ok": "pyaterochka", "contact:phone": "+7 800 5555505", "contact:telegram": "ks5_bot", "contact:vk": "pyaterochka_shop", "contact:website": "https://5ka.ru", "contact:whatsapp": "79865555505", "int_name": "Pyaterochka", "name": "Пятёрочка", "name:en": "Pyaterochka", "name:ru": "Пятёрочка", "opening_hours": "08:00-22:00", "operator": "ООО \"Агроторг\"", "payment:cards": "yes", "payment:cash": "yes", "payment:mastercard": "yes", "payment:visa": "yes", "ref": "7343", "shop": "supermarket", "addr:city": null, "addr:housenumber": null, "addr:postcode": null, "addr:street": null, "name:de": null, "payment:credit_cards": null, "payment:debit_cards": null, "phone": null, "website": null, "payment:coins": null, "contact:youtube": null, "payment:contactless": null, "building": null, "building:levels": null }, "geometry": { "type": "Point", "coordinates": [ 33.5557634, 60.732961 ] } },
{ "type": "Feature", "properties": { "element_type": "node", "osmid": 1330185912, "alt_name": null, "alt_name:ru": null, "brand": "Магнит", "brand:en": "Magnit", "brand:ru": null, "brand:wikidata": "Q940518", "brand:wikipedia": "ru:Магнит (сеть магазинов)", "contact:email": null, "contact:facebook": null, "contact:instagram": null, "contact:ok": null, "contact:phone": null, "contact:telegram": null, "contact:vk": null, "contact:website": null, "contact:whatsapp": null, "int_name": null, "name": "Магнит", "name:en": "Magnit", "name:ru": "Магнит", "opening_hours": "Mo-Su 08:00-22:00", "operator": null, "payment:cards": null, "payment:cash": "yes", "payment:mastercard": null, "payment:visa": null, "ref": null, "shop": "supermarket", "addr:city": "Лодейное Поле", "addr:housenumber": "13", "addr:postcode": "187700", "addr:street": "улица Гагарина", "name:de": "Magnit", "payment:credit_cards": "yes", "payment:debit_cards": "yes", "phone": "+78002009002", "website": "https://magnit-info.ru/", "payment:coins": null, "contact:youtube": null, "payment:contactless": null, "building": null, "building:levels": null }, "geometry": { "type": "Point", "coordinates": [ 33.5449414, 60.7353514 ] } },
{ "type": "Feature", "properties": { "element_type": "node", "osmid": 1330186016, "alt_name": null, "alt_name:ru": null, "brand": "Магнит", "brand:en": "Magnit", "brand:ru": null, "brand:wikidata": "Q940518", "brand:wikipedia": "ru:Магнит (сеть магазинов)", "contact:email": null, "contact:facebook": null, "contact:instagram": null, "contact:ok": null, "contact:phone": null, "contact:telegram": null, "contact:vk": null, "contact:website": null, "contact:whatsapp": null, "int_name": null, "name": "Магнит", "name:en": "Magnit", "name:ru": "Магнит", "opening_hours": "Mo-Su 08:00-22:00", "operator": null, "payment:cards": null, "payment:cash": "yes", "payment:mastercard": null, "payment:visa": null, "ref": null, "shop": "supermarket", "addr:city": "Лодейное Поле", "addr:housenumber": "27А", "addr:postcode": "187700", "addr:street": "улица Карла Маркса", "name:de": "Magnit", "payment:credit_cards": "yes", "payment:debit_cards": "yes", "phone": "+78002009002", "website": "https://magnit.ru", "payment:coins": "yes", "contact:youtube": null, "payment:contactless": null, "building": null, "building:levels": null }, "geometry": { "type": "Point", "coordinates": [ 33.5522638, 60.7354523 ] } },
{ "type": "Feature", "properties": { "element_type": "node", "osmid": 1330186121, "alt_name": null, "alt_name:ru": null, "brand": "Дикси", "brand:en": "Dixy", "brand:ru": "Дикси", "brand:wikidata": "Q4161561", "brand:wikipedia": "ru:Дикси (сеть магазинов)", "contact:email": null, "contact:facebook": "Dixyclub", "contact:instagram": "dixy.channel", "contact:ok": "dixyclub", "contact:phone": "+7 800 3330201", "contact:telegram": null, "contact:vk": "dixyclub", "contact:website": "https://dixy.ru", "contact:whatsapp": null, "int_name": null, "name": "Дикси", "name:en": "Dixy", "name:ru": "Дикси", "opening_hours": "Mo-Su 09:00-23:00", "operator": null, "payment:cards": "yes", "payment:cash": "yes", "payment:mastercard": null, "payment:visa": null, "ref": null, "shop": "supermarket", "addr:city": null, "addr:housenumber": null, "addr:postcode": null, "addr:street": null, "name:de": null, "payment:credit_cards": null, "payment:debit_cards": null, "phone": null, "website": null, "payment:coins": null, "contact:youtube": "https://www.youtube.com/user/DixyChannel", "payment:contactless": "yes", "building": null, "building:levels": null }, "geometry": { "type": "Point", "coordinates": [ 33.5521436, 60.7287764 ] } },
{ "type": "Feature", "properties": { "element_type": "node", "osmid": 1330186271, "alt_name": "Пятерочка", "alt_name:ru": "Пятерочка", "brand": "Пятёрочка", "brand:en": "Pyaterochka", "brand:ru": "Пятёрочка", "brand:wikidata": "Q1768969", "brand:wikipedia": "ru:Пятёрочка", "contact:email": "vopros@5ka.ru", "contact:facebook": "pyaterochka", "contact:instagram": "pyaterochka_official", "contact:ok": "pyaterochka", "contact:phone": "+7 800 5555505", "contact:telegram": "ks5_bot", "contact:vk": "pyaterochka_shop", "contact:website": "https://5ka.ru", "contact:whatsapp": "79865555505", "int_name": "Pyaterochka", "name": "Пятёрочка", "name:en": "Pyaterochka", "name:ru": "Пятёрочка", "opening_hours": "08:00-22:00", "operator": "ООО \"Агроторг\"", "payment:cards": "yes", "payment:cash": "yes", "payment:mastercard": "yes", "payment:visa": "yes", "ref": "7586", "shop": "supermarket", "addr:city": null, "addr:housenumber": null, "addr:postcode": null, "addr:street": null, "name:de": null, "payment:credit_cards": null, "payment:debit_cards": null, "phone": null, "website": null, "payment:coins": null, "contact:youtube": null, "payment:contactless": null, "building": null, "building:levels": null }, "geometry": { "type": "Point", "coordinates": [ 33.5398291, 60.7391601 ] } },
{ "type": "Feature", "properties": { "element_type": "node", "osmid": 3277038570, "alt_name": "Пятерочка", "alt_name:ru": "Пятерочка", "brand": "Пятёрочка", "brand:en": "Pyaterochka", "brand:ru": "Пятёрочка", "brand:wikidata": "Q1768969", "brand:wikipedia": "ru:Пятёрочка", "contact:email": "vopros@5ka.ru", "contact:facebook": "pyaterochka", "contact:instagram": "pyaterochka_official", "contact:ok": "pyaterochka", "contact:phone": "+7 800 5555505", "contact:telegram": "ks5_bot", "contact:vk": "pyaterochka_shop", "contact:website": "https://5ka.ru", "contact:whatsapp": "79865555505", "int_name": "Pyaterochka", "name": "Пятёрочка", "name:en": "Pyaterochka", "name:ru": "Пятёрочка", "opening_hours": "08:00-22:00", "operator": "ООО \"Агроторг\"", "payment:cards": "yes", "payment:cash": "yes", "payment:mastercard": "yes", "payment:visa": "yes", "ref": "13415", "shop": "supermarket", "addr:city": null, "addr:housenumber": null, "addr:postcode": null, "addr:street": null, "name:de": null, "payment:credit_cards": null, "payment:debit_cards": null, "phone": null, "website": null, "payment:coins": null, "contact:youtube": null, "payment:contactless": null, "building": null, "building:levels": null }, "geometry": { "type": "Point", "coordinates": [ 33.5466113, 60.7208635 ] } },
{ "type": "Feature", "properties": { "element_type": "node", "osmid": 3853981372, "alt_name": null, "alt_name:ru": null, "brand": "Дикси", "brand:en": "Dixy", "brand:ru": "Дикси", "brand:wikidata": "Q4161561", "brand:wikipedia": "ru:Дикси (сеть магазинов)", "contact:email": null, "contact:facebook": "Dixyclub", "contact:instagram": "dixy.channel", "contact:ok": "dixyclub", "contact:phone": "+7 800 3330201", "contact:telegram": null, "contact:vk": "dixyclub", "contact:website": "https://dixy.ru", "contact:whatsapp": null, "int_name": null, "name": "Дикси", "name:en": "Dixy", "name:ru": "Дикси", "opening_hours": "Mo-Su 09:00-22:00", "operator": null, "payment:cards": "yes", "payment:cash": "yes", "payment:mastercard": null, "payment:visa": null, "ref": null, "shop": "supermarket", "addr:city": "Лодейное Поле", "addr:housenumber": "6 к1", "addr:postcode": "187700", "addr:street": "улица Гагарина", "name:de": null, "payment:credit_cards": null, "payment:debit_cards": null, "phone": "+78001011001", "website": null, "payment:coins": null, "contact:youtube": "https://www.youtube.com/user/DixyChannel", "payment:contactless": "yes", "building": null, "building:levels": null }, "geometry": { "type": "Point", "coordinates": [ 33.5427107, 60.7403474 ] } },
{ "type": "Feature", "properties": { "element_type": "node", "osmid": 4430346191, "alt_name": null, "alt_name:ru": null, "brand": null, "brand:en": null, "brand:ru": null, "brand:wikidata": "Q940518", "brand:wikipedia": "ru:Магнит (сеть магазинов)", "contact:email": null, "contact:facebook": null, "contact:instagram": null, "contact:ok": null, "contact:phone": null, "contact:telegram": null, "contact:vk": null, "contact:website": null, "contact:whatsapp": null, "int_name": null, "name": "Магнит", "name:en": "Magnit", "name:ru": "Магнит", "opening_hours": null, "operator": null, "payment:cards": null, "payment:cash": null, "payment:mastercard": null, "payment:visa": null, "ref": null, "shop": "supermarket", "addr:city": null, "addr:housenumber": null, "addr:postcode": null, "addr:street": null, "name:de": "Magnit", "payment:credit_cards": null, "payment:debit_cards": null, "phone": "+78002009002", "website": "https://magnit-info.ru/", "payment:coins": null, "contact:youtube": null, "payment:contactless": null, "building": null, "building:levels": null }, "geometry": { "type": "Point", "coordinates": [ 33.5668823, 60.7244427 ] } },
{ "type": "Feature", "properties": { "element_type": "node", "osmid": 4430379989, "alt_name": "Пятерочка", "alt_name:ru": "Пятерочка", "brand": "Пятёрочка", "brand:en": "Pyaterochka", "brand:ru": "Пятёрочка", "brand:wikidata": "Q1768969", "brand:wikipedia": "ru:Пятёрочка", "contact:email": "vopros@5ka.ru", "contact:facebook": "pyaterochka", "contact:instagram": "pyaterochka_official", "contact:ok": "pyaterochka", "contact:phone": "+7 800 5555505", "contact:telegram": "ks5_bot", "contact:vk": "pyaterochka_shop", "contact:website": "https://5ka.ru", "contact:whatsapp": "79865555505", "int_name": "Pyaterochka", "name": "Пятёрочка", "name:en": "Pyaterochka", "name:ru": "Пятёрочка", "opening_hours": "08:00-22:00", "operator": "ООО \"Агроторг\"", "payment:cards": "yes", "payment:cash": "yes", "payment:mastercard": "yes", "payment:visa": "yes", "ref": "8911", "shop": "supermarket", "addr:city": null, "addr:housenumber": null, "addr:postcode": null, "addr:street": null, "name:de": null, "payment:credit_cards": null, "payment:debit_cards": null, "phone": null, "website": null, "payment:coins": null, "contact:youtube": null, "payment:contactless": null, "building": null, "building:levels": null }, "geometry": { "type": "Point", "coordinates": [ 33.5703211, 60.725144 ] } },
{ "type": "Feature", "properties": { "element_type": "node", "osmid": 4430464894, "alt_name": null, "alt_name:ru": null, "brand": null, "brand:en": null, "brand:ru": null, "brand:wikidata": "Q940518", "brand:wikipedia": "ru:Магнит (сеть магазинов)", "contact:email": null, "contact:facebook": null, "contact:instagram": null, "contact:ok": null, "contact:phone": null, "contact:telegram": null, "contact:vk": null, "contact:website": null, "contact:whatsapp": null, "int_name": null, "name": "Магнит", "name:en": "Magnit", "name:ru": "Магнит", "opening_hours": null, "operator": null, "payment:cards": null, "payment:cash": null, "payment:mastercard": null, "payment:visa": null, "ref": null, "shop": "supermarket", "addr:city": null, "addr:housenumber": null, "addr:postcode": null, "addr:street": null, "name:de": "Magnit", "payment:credit_cards": null, "payment:debit_cards": null, "phone": "+78002009002", "website": "https://magnit-info.ru/", "payment:coins": null, "contact:youtube": null, "payment:contactless": null, "building": null, "building:levels": null }, "geometry": { "type": "Point", "coordinates": [ 33.5399652, 60.7383614 ] } },
{ "type": "Feature", "properties": { "element_type": "node", "osmid": 9409733160, "alt_name": null, "alt_name:ru": null, "brand": "Светофор", "brand:en": "Svetofor", "brand:ru": null, "brand:wikidata": "Q61875920", "brand:wikipedia": null, "contact:email": null, "contact:facebook": null, "contact:instagram": null, "contact:ok": null, "contact:phone": null, "contact:telegram": null, "contact:vk": null, "contact:website": null, "contact:whatsapp": null, "int_name": null, "name": "Светофор", "name:en": null, "name:ru": null, "opening_hours": "Mo-Su 09:00-21:00", "operator": null, "payment:cards": null, "payment:cash": null, "payment:mastercard": null, "payment:visa": null, "ref": null, "shop": "supermarket", "addr:city": null, "addr:housenumber": null, "addr:postcode": null, "addr:street": null, "name:de": null, "payment:credit_cards": null, "payment:debit_cards": null, "phone": null, "website": "http://svetoforonline.ru/", "payment:coins": null, "contact:youtube": null, "payment:contactless": null, "building": null, "building:levels": null }, "geometry": { "type": "Point", "coordinates": [ 33.4847496, 60.7303096 ] } },
{ "type": "Feature", "properties": { "element_type": "node", "osmid": 11576409699, "alt_name": null, "alt_name:ru": null, "brand": null, "brand:en": null, "brand:ru": null, "brand:wikidata": "Q1768969", "brand:wikipedia": "ru:Пятёрочка", "contact:email": null, "contact:facebook": null, "contact:instagram": null, "contact:ok": null, "contact:phone": "+7 800 5555505", "contact:telegram": null, "contact:vk": null, "contact:website": "https://5ka.ru", "contact:whatsapp": null, "int_name": null, "name": "Пятёрочка", "name:en": "Pyaterochka", "name:ru": "Пятёрочка", "opening_hours": "08:00-22:00", "operator": "ООО \"Агроторг\"", "payment:cards": null, "payment:cash": null, "payment:mastercard": null, "payment:visa": null, "ref": "33179", "shop": "supermarket", "addr:city": null, "addr:housenumber": null, "addr:postcode": null, "addr:street": null, "name:de": null, "payment:credit_cards": null, "payment:debit_cards": null, "phone": null, "website": null, "payment:coins": null, "contact:youtube": null, "payment:contactless": null, "building": null, "building:levels": null }, "geometry": { "type": "Point", "coordinates": [ 33.5539929, 60.7297575 ] } },
{ "type": "Feature", "properties": { "element_type": "node", "osmid": 11576409700, "alt_name": null, "alt_name:ru": null, "brand": null, "brand:en": null, "brand:ru": null, "brand:wikidata": "Q1768969", "brand:wikipedia": "ru:Пятёрочка", "contact:email": null, "contact:facebook": null, "contact:instagram": null, "contact:ok": null, "contact:phone": "+7 800 5555505", "contact:telegram": null, "contact:vk": null, "contact:website": "https://5ka.ru", "contact:whatsapp": null, "int_name": null, "name": "Пятёрочка", "name:en": "Pyaterochka", "name:ru": "Пятёрочка", "opening_hours": "08:00-22:00", "operator": "ООО \"Агроторг\"", "payment:cards": null, "payment:cash": null, "payment:mastercard": null, "payment:visa": null, "ref": "32176", "shop": "supermarket", "addr:city": null, "addr:housenumber": null, "addr:postcode": null, "addr:street": null, "name:de": null, "payment:credit_cards": null, "payment:debit_cards": null, "phone": null, "website": null, "payment:coins": null, "contact:youtube": null, "payment:contactless": null, "building": null, "building:levels": null }, "geometry": { "type": "Point", "coordinates": [ 33.5463386, 60.7354023 ] } }
]
}
